ONEWEB-0228             
1 48780U 21045P   23308.41331259  .00000029  00000+0  43392-4 0  9998
2 48780  87.8963  89.4629 0001496  89.9336 270.1966 13.15549831118669
